ONEWEB-0558             
1 56059U 23043P   24143.23549163 -.00000383  00000+0 -95818-3 0  9993
2 56059  87.9314  34.4589 0002268  86.3506 273.7887 13.21825169 58371
ONEWEB-0559             
1 56060U 23043Q   24143.22445694  .00000010  00000+0 -63898-5 0  9999
2 56060  87.9313  34.4591 0001970  99.7523 260.3834 13.21825183 58382
ONEWEB-0566             
1 56061U 23043R   24143.21814777  .00000020  00000+0  17023-4 0  9999
2 56061  87.9313  34.4611 0002484  91.9702 268.1716 13.21825655 58367
ONEWEB-0568             
1 56062U 23043S   24143.22119101 -.00002516  00000+0 -66200-2 0  9993
2 56062  87.9146  19.2558 0001375  98.5786 261.5500 13.16562013 59501
ONEWEB-0574             
1 56063U 23043T   24143.21183497  .00000117  00000+0  25265-3 0  9992
2 56063  87.9310  34.4576 0001985  78.2018 281.9339 13.21828009 59315
ONEWEB-0575             
1 56064U 23043U   24143.21483394 -.00000002  00000+0 -38090-4 0  9998
2 56064  87.9130  19.2604 0001202  78.6770 281.4496 13.16594303 59499
ONEWEB-0576             
1 56065U 23043V   24143.19583311  .00000143  00000+0  34010-3 0  9997
2 56065  87.9129  19.2623 0001567  66.9174 293.2122 13.16594893 59481
ONEWEB-0577             
1 56066U 23043W   24143.20216826  .00000029  00000+0  41326-4 0  9996
2 56066  87.9129  19.2599 0000955  80.6212 279.5027 13.16594449 59512
